{
  "type": "FeatureCollection",
  "features": [
    {
      "type": "Feature",
      "properties": {
        "norad_id": 31990,
        "name": "FENGYUN 1C DEB",
        "group": "fengyun-1c-debris",
        "lat": -27.197414499685983,
        "lon": -170.0451543115626,
        "alt_km": 897.2284419048356,
        "timestamp": "2025-12-18T14:52:08.310896+00:00",
        "meta_object_name": "FENGYUN 1C DEB",
        "meta_object_id": "1999-025CPT",
        "meta_epoch": "2025-12-16T07:20:08.280960",
        "meta_mean_motion": 13.57204188,
        "meta_eccentricity": 0.02602939,
        "meta_inclination": 99.1604,
        "meta_ra_of_asc_node": 12.5538,
        "meta_arg_of_pericenter": 175.4339,
        "meta_mean_anomaly": 250.6378,
        "meta_ephemeris_type": 0,
        "meta_classification_type": "U",
        "meta_norad_cat_id": 31990,
        "meta_element_set_no": 999,
        "meta_rev_at_epoch": 62820,
        "meta_bstar": 0.00028232559,
        "meta_mean_motion_dot": 2.11e-06,
        "meta_mean_motion_ddot": 0,
        "tle_line1": "1 31990U 99025CPT 25350.30565140  .00000211  00000+0  28233-3 0  9990",
        "tle_line2": "2 31990  99.1604  12.5538 0260293 175.4339 250.6378 13.57204188628209"
      },
      "geometry": {
        "type": "Point",
        "coordinates": [
          -170.0451543115626,
          -27.197414499685983
        ]
      }
    },
    {
      "type": "Feature",
      "properties": {
        "norad_id": 31991,
        "name": "FENGYUN 1C DEB",
        "group": "fengyun-1c-debris",
        "lat": -49.2250841811696,
        "lon": -165.56431493012502,
        "alt_km": 1030.6744131004316,
        "timestamp": "2025-12-18T14:52:08.310906+00:00",
        "meta_object_name": "FENGYUN 1C DEB",
        "meta_object_id": "1999-025CPU",
        "meta_epoch": "2025-12-10T18:22:22.024416",
        "meta_mean_motion": 13.6127752,
        "meta_eccentricity": 0.02446272,
        "meta_inclination": 100.4864,
        "meta_ra_of_asc_node": 173.6062,
        "meta_arg_of_pericenter": 58.2006,
        "meta_mean_anomaly": 304.2706,
        "meta_ephemeris_type": 0,
        "meta_classification_type": "U",
        "meta_norad_cat_id": 31991,
        "meta_element_set_no": 999,
        "meta_rev_at_epoch": 62060,
        "meta_bstar": 0.00020963887,
        "meta_mean_motion_dot": 1.45e-06,
        "meta_mean_motion_ddot": 0,
        "tle_line1": "1 31991U 99025CPU 25344.76553269  .00000145  00000+0  20964-3 0  9992",
        "tle_line2": "2 31991 100.4864 173.6062 0244627  58.2006 304.2706 13.61277520620609"
      },
      "geometry": {
        "type": "Point",
        "coordinates": [
          -165.56431493012502,
          -49.2250841811696
        ]
      }
    },
    {
      "type": "Feature",
      "properties": {
        "norad_id": 31992,
        "name": "FENGYUN 1C DEB",
        "group": "fengyun-1c-debris",
        "lat": 65.31367848478655,
        "lon": 152.36827498195382,
        "alt_km": 1199.1985021005603,
        "timestamp": "2025-12-18T14:52:08.310916+00:00",
        "meta_object_name": "FENGYUN 1C DEB",
        "meta_object_id": "1999-025CPV",
        "meta_epoch": "2025-12-12T04:04:23.293056",
        "meta_mean_motion": 13.22988689,
        "meta_eccentricity": 0.05424019,
        "meta_inclination": 99.1658,
        "meta_ra_of_asc_node": 306.1111,
        "meta_arg_of_pericenter": 30.97,
        "meta_mean_anomaly": 332.2249,
        "meta_ephemeris_type": 0,
        "meta_classification_type": "U",
        "meta_norad_cat_id": 31992,
        "meta_element_set_no": 999,
        "meta_rev_at_epoch": 53867,
        "meta_bstar": 0.001808457,
        "meta_mean_motion_dot": 1.63e-05,
        "meta_mean_motion_ddot": 0,
        "tle_line1": "1 31992U 99025CPV 25346.16971404  .00001630  00000+0  18085-2 0  9994",
        "tle_line2": "2 31992  99.1658 306.1111 0542401  30.9700 332.2249 13.22988689538672"
      },
      "geometry": {
        "type": "Point",
        "coordinates": [
          152.36827498195382,
          65.31367848478655
        ]
      }
    },
    {
      "type": "Feature",
      "properties": {
        "norad_id": 31993,
        "name": "FENGYUN 1C DEB",
        "group": "fengyun-1c-debris",
        "lat": -59.7546163700126,
        "lon": 128.05580982182573,
        "alt_km": 1312.7605371261861,
        "timestamp": "2025-12-18T14:52:08.310926+00:00",
        "meta_object_name": "FENGYUN 1C DEB",
        "meta_object_id": "1999-025CPW",
        "meta_epoch": "2025-12-17T15:59:38.723424",
        "meta_mean_motion": 13.27465244,
        "meta_eccentricity": 0.04221919,
        "meta_inclination": 99.2401,
        "meta_ra_of_asc_node": 323.4136,
        "meta_arg_of_pericenter": 123.2149,
        "meta_mean_anomaly": 241.0192,
        "meta_ephemeris_type": 0,
        "meta_classification_type": "U",
        "meta_norad_cat_id": 31993,
        "meta_element_set_no": 999,
        "meta_rev_at_epoch": 89008,
        "meta_bstar": 0.0017179933,
        "meta_mean_motion_dot": 1.22e-05,
        "meta_mean_motion_ddot": 0,
        "tle_line1": "1 31993U 99025CPW 25351.66642041  .00001220  00000+0  17180-2 0  9998",
        "tle_line2": "2 31993  99.2401 323.4136 0422191 123.2149 241.0192 13.27465244890087"
      },
      "geometry": {
        "type": "Point",
        "coordinates": [
          128.05580982182573,
          -59.7546163700126
        ]
      }
    },
    {
      "type": "Feature",
      "properties": {
        "norad_id": 31994,
        "name": "FENGYUN 1C DEB",
        "group": "fengyun-1c-debris",
        "lat": 74.25783692737738,
        "lon": -45.837939719857815,
        "alt_km": 828.9700931811994,
        "timestamp": "2025-12-18T14:52:08.310936+00:00",
        "meta_object_name": "FENGYUN 1C DEB",
        "meta_object_id": "1999-025CPX",
        "meta_epoch": "2025-12-18T05:54:00.814464",
        "meta_mean_motion": 13.95758705,
        "meta_eccentricity": 0.01625274,
        "meta_inclination": 98.539,
        "meta_ra_of_asc_node": 346.0233,
        "meta_arg_of_pericenter": 130.8306,
        "meta_mean_anomaly": 230.708,
        "meta_ephemeris_type": 0,
        "meta_classification_type": "U",
        "meta_norad_cat_id": 31994,
        "meta_element_set_no": 999,
        "meta_rev_at_epoch": 56873,
        "meta_bstar": -7.0824309e-05,
        "meta_mean_motion_dot": -1.46e-06,
        "meta_mean_motion_ddot": 0,
        "tle_line1": "1 31994U 99025CPX 25352.24584276 -.00000146  00000+0 -70824-4 0  9993",
        "tle_line2": "2 31994  98.5390 346.0233 0162527 130.8306 230.7080 13.95758705568736"
      },
      "geometry": {
        "type": "Point",
        "coordinates": [
          -45.837939719857815,
          74.25783692737738
        ]
      }
    },
    {
      "type": "Feature",
      "properties": {
        "norad_id": 31997,
        "name": "FENGYUN 1C DEB",
        "group": "fengyun-1c-debris",
        "lat": 28.781799423768543,
        "lon": 30.738647894313356,
        "alt_km": 1163.4115822191707,
        "timestamp": "2025-12-18T14:52:08.310946+00:00",
        "meta_object_name": "FENGYUN 1C DEB",
        "meta_object_id": "1999-025CQA",
        "meta_epoch": "2025-12-15T21:25:47.322912",
        "meta_mean_motion": 13.60688194,
        "meta_eccentricity": 0.02902938,
        "meta_inclination": 102.5107,
        "meta_ra_of_asc_node": 34.2632,
        "meta_arg_of_pericenter": 266.7026,
        "meta_mean_anomaly": 90.0859,
        "meta_ephemeris_type": 0,
        "meta_classification_type": "U",
        "meta_norad_cat_id": 31997,
        "meta_element_set_no": 999,
        "meta_rev_at_epoch": 61726,
        "meta_bstar": 0.0019849043,
        "meta_mean_motion_dot": 1.913e-05,
        "meta_mean_motion_ddot": 0,
        "tle_line1": "1 31997U 99025CQA 25349.89290883  .00001913  00000+0  19849-2 0  9990",
        "tle_line2": "2 31997 102.5107  34.2632 0290293 266.7026  90.0859 13.60688194617260"
      },
      "geometry": {
        "type": "Point",
        "coordinates": [
          30.738647894313356,
          28.781799423768543
        ]
      }
    },
    {
      "type": "Feature",
      "properties": {
        "norad_id": 32086,
        "name": "FENGYUN 1C DEB",
        "group": "fengyun-1c-debris",
        "lat": 79.42474968661044,
        "lon": -13.707612360459061,
        "alt_km": 813.6872812677839,
        "timestamp": "2025-12-18T14:52:08.310956+00:00",
        "meta_object_name": "FENGYUN 1C DEB",
        "meta_object_id": "1999-025CQC",
        "meta_epoch": "2025-12-17T10:23:39.337152",
        "meta_mean_motion": 13.689162,
        "meta_eccentricity": 0.02995228,
        "meta_inclination": 99.2703,
        "meta_ra_of_asc_node": 46.1713,
        "meta_arg_of_pericenter": 123.4273,
        "meta_mean_anomaly": 239.5901,
        "meta_ephemeris_type": 0,
        "meta_classification_type": "U",
        "meta_norad_cat_id": 32086,
        "meta_element_set_no": 999,
        "meta_rev_at_epoch": 61845,
        "meta_bstar": 0.0015448489,
        "meta_mean_motion_dot": 1.784e-05,
        "meta_mean_motion_ddot": 0,
        "tle_line1": "1 32086U 99025CQC 25351.43309418  .00001784  00000+0  15448-2 0  9995",
        "tle_line2": "2 32086  99.2703  46.1713 0299522 123.4273 239.5901 13.68916200618453"
      },
      "geometry": {
        "type": "Point",
        "coordinates": [
          -13.707612360459061,
          79.42474968661044
        ]
      }
    }
  ]
}